OBJECTID,FEATURETYPE,DESCRIPTION,CLASS,FID,NAME,OPERATIONALSTATUS,OPERATOR,OWNER,ADDRESS,SUBURB,STATE,SPATIALCONFIDENCE,REVISED,COMMENT,LATITUDE,LONGITUDE
1,Fuel Depot,"A facility used for the bulk storage of petrol, oil, petroleum or other inflammable liquid for wholesale distribution and at 	which no retail trade is conducted",Fuel Depot,52,Eden,Operational,Caltex,Caltex,Lot 23 Ben Boyd Drive,Eden,New South Wales,4,20121004,"8 lay Down tanks + 1 lay down tank possibly for GAS, Roofed metal shelter. Up on a steep hill",-37.03847885,149.8915405
2,Fuel Depot,"A facility used for the bulk storage of petrol, oil, petroleum or other inflammable liquid for wholesale distribution and at 	which no retail trade is conducted",Fuel Depot,53,Temora Fuel Distributors,Operational,Temora Fuel Distributors,BP,9 Ironbark Street,Temora,New South Wales,5,20121004,"3 med + 1 med + 1 separate lay down tank, 2 med lay down tanks in workshop area + 1 possibly Decommissioned tank. Steel Warehouse & brick office",-34.44768524,147.5529785
3,Fuel Depot,"A facility used for the bulk storage of petrol, oil, petroleum or other inflammable liquid for wholesale distribution and at 	which no retail trade is conducted",Fuel Depot,54,Dubbo,Operational,Inland Petroleum,BP,105 Erskine Street,Dubbo,New South Wales,5,20121004,"Station as well, 1 Terminal sized upright + 10 med tall upright tanks, Delivery by rail, shop as well brick/steel enclosed barrel warehouse",-32.24432373,148.6102676
4,Fuel Depot,"A facility used for the bulk storage of petrol, oil, petroleum or other inflammable liquid for wholesale distribution and at 	which no retail trade is conducted",Fuel Depot,55,Dubbo,Operational,Lowes Petroleum Service,Mobil,107 Erskine Street,Dubbo,New South Wales,5,20121004,"Station as well, 5 large + 2 small upright tanks, Steel warehouse and brick station. has possibly large water tank seen in aerial not in street view next to warehouse, Delivery by rail",-32.2444725,148.6111526
5,Fuel Depot,"A facility used for the bulk storage of petrol, oil, petroleum or other inflammable liquid for wholesale distribution and at 	which no retail trade is conducted",Fuel Depot,56,Dubbo,Operational,Shell,Shell,109-113 Erskine Street,Dubbo,New South Wales,5,20121004,"Station as well, 1 terminal sized + 1 small upright tanks and 2 large lay down tanks, rail access, Enclosed steel warehouse, Steel roof for tank bowser",-32.2447319,148.6123962
6,Fuel Depot,"A facility used for the bulk storage of petrol, oil, petroleum or other inflammable liquid for wholesale distribution and at 	which no retail trade is conducted",Fuel Depot,57,DSF Tamworth,Operational,,BP,27-29 Gunnedah Road,Taminda,New South Wales,5,20121004,"Station as well, unable to see more than open Air roof for tanker bowser, Assuming in ground tanks, Assuming rail delivery piping can be seen from at back of site, Steel warehouse + Barrels",-31.09635639,150.9057617
7,Fuel Depot,"A facility used for the bulk storage of petrol, oil, petroleum or other inflammable liquid for wholesale distribution and at 	which no retail trade is conducted",Fuel Depot,58,Tamworth,Operational,,Mobil,9 Hinkler Road,Taminda,New South Wales,5,20121004,"Station as well, A large Long warehouse plus station office, Street view limited view but tanks are tall with 2  terminal sized plus from aerial 1 large and 4 med upright tanks",-31.09581947,150.9041367
8,Fuel Depot,"A facility used for the bulk storage of petrol, oil, petroleum or other inflammable liquid for wholesale distribution and at 	which no retail trade is conducted",Fuel Depot,59,Tuggerah,Operational,,Caltex,2 Johnson Road,Tuggerah,New South Wales,5,20121004,"4 tanker sized + 2 small lay down tanks, Steel Shed, Covered tank bowser, barrels",-33.29428863,151.4216003
9,Fuel Depot,"A facility used for the bulk storage of petrol, oil, petroleum or other inflammable liquid for wholesale distribution and at 	which no retail trade is conducted",Fuel Depot,60,Wauchope,Operational,,Caltex,198 High Street,Wauchope,New South Wales,4,20121004,"Street view show small depot, Detail blocked by station,  Brick building, Caged gas storage compound, next to playground at water tank",-31.46499729,152.7224426
10,Fuel Depot,"A facility used for the bulk storage of petrol, oil, petroleum or other inflammable liquid for wholesale distribution and at 	which no retail trade is conducted",Fuel Depot,61,Casino,Operational,Caltex Energy NSW,Caltex,28-32 Dyraaba Street,Casino,New South Wales,5,20121004,"Station as well, Large Complex, Steel sheds and open air warehouse, Barrels, 10 Tanker sized lay down Tanks. Next to railway bend and level crossing",-28.85486603,153.0446014
11,Fuel Depot,"A facility used for the bulk storage of petrol, oil, petroleum or other inflammable liquid for wholesale distribution and at 	which no retail trade is conducted",Fuel Depot,62,Bega,Operational,,Caltex,36 Lagoon Street,Bega,New South Wales,5,20121004,"Station as well, Next to BEGA cheese factory 100m, Open Air steel shed and office, Wooden Workshop, 1 tanker sized + 1 med lay down tank and 4 small upright tanks. Barrels",-36.66816711,149.8285675
12,Fuel Depot,"A facility used for the bulk storage of petrol, oil, petroleum or other inflammable liquid for wholesale distribution and at 	which no retail trade is conducted",Fuel Depot,63,Moruya,Operational,,Caltex,26 Campbell Street,Moruya,New South Wales,5,20121004,"Steel Sheds, Brick/Corrugated Steel Office, close to residents. 3 Tanker Sized + 1 small lay down tank And 1 med upright tank",-35.91049957,150.0711441
13,Fuel Depot,"A facility used for the bulk storage of petrol, oil, petroleum or other inflammable liquid for wholesale distribution and at 	which no retail trade is conducted",Fuel Depot,64,Milton,Operational,Kel Campbell Pty Ltd,Independent,345 Princes Highway,Milton,New South Wales,4,20121004,"Station as well, 2 Large + 5 small + 1 med Lay down tank, Besser brick office and Station",-35.33154678,150.4493408
14,Fuel Depot,"A facility used for the bulk storage of petrol, oil, petroleum or other inflammable liquid for wholesale distribution and at 	which no retail trade is conducted",Fuel Depot,65,Bomen,Operational,Tasco Inland Australia Pty Ltd,Caltex,34 Lewington Street,Bomen,New South Wales,5,20121004,"Diesel bowser only, truck stop as well, Rail delivery, street view too far away for details. Large steel roof cover, 1 tall terminal sized + 3 lower terminal sized and 1 large & 4 medium upright tanks",-35.07019806,147.4122009
15,Fuel Depot,"A facility used for the bulk storage of petrol, oil, petroleum or other inflammable liquid for wholesale distribution and at 	which no retail trade is conducted",Fuel Depot,66,Goulburn,Operational,,Caltex,13-15 Sloane Street,Goulburn,New South Wales,2,20121004,"Steel warehouses, Steel offices and sheds",-34.77420998,149.7089844
16,Fuel Depot,"A facility used for the bulk storage of petrol, oil, petroleum or other inflammable liquid for wholesale distribution and at 	which no retail trade is conducted",Fuel Depot,67,Cootamundra,Operational,South West Fuel Centre Pty Ltd,Caltex,26 Hovell Street,Cootamundra,New South Wales,5,20121004,"Station as well. Steel shed, barrels, Gas bottles",-34.63626671,148.0348511
17,Fuel Depot,"A facility used for the bulk storage of petrol, oil, petroleum or other inflammable liquid for wholesale distribution and at 	which no retail trade is conducted",Fuel Depot,68,Port Kembla,Operational,Kel Campbell Pty Ltd,Caltex,5 Flinders Street,Port Kembla,New South Wales,5,20121004,Only diesel available. Street view 2009 above ground tanks not visible. might be a complete site refurbishment. Sloping block near harbour,-34.47087479,150.8946381
18,Fuel Depot,"A facility used for the bulk storage of petrol, oil, petroleum or other inflammable liquid for wholesale distribution and at 	which no retail trade is conducted",Fuel Depot,69,Griffith,Operational,F & R N McNabb Pty Ltd,Caltex,2 Mackay Avenue,Griffith,New South Wales,5,20121004,Station as well. unable to see much more than steel warehouse,-34.29098511,146.0630646
19,Fuel Depot,"A facility used for the bulk storage of petrol, oil, petroleum or other inflammable liquid for wholesale distribution and at 	which no retail trade is conducted",Fuel Depot,70,Griffith,Operational,,Shell,6 Mackay Highway,Griffith,New South Wales,2,20121004,Depot plus Diesel only  truck stop,-34.29117203,146.0638123
20,Fuel Depot,"A facility used for the bulk storage of petrol, oil, petroleum or other inflammable liquid for wholesale distribution and at 	which no retail trade is conducted",Fuel Depot,71,Port Kembla,Operational,,Shell,87-89 Flinders Street,Port Kembla,New South Wales,5,20121004,Found under commercial fuels (Diesel extra) on shell web site,-34.4696312,150.8956451
21,Fuel Depot,"A facility used for the bulk storage of petrol, oil, petroleum or other inflammable liquid for wholesale distribution and at 	which no retail trade is conducted",Fuel Depot,72,Leppington,Operational,,Mobil,Bringelly Road,Leppington,New South Wales,5,20121004,"Station as well, Doubled up record in stations Data",-33.95186233,150.8113937
22,Fuel Depot,"A facility used for the bulk storage of petrol, oil, petroleum or other inflammable liquid for wholesale distribution and at 	which no retail trade is conducted",Fuel Depot,73,West Wyalong,Operational,Oilsplus Pty Ltd,Caltex,Lot 2 Chauvel Street,West Wyalong,New South Wales,5,20121004,Station as well,-33.9257946,147.1978149
23,Fuel Depot,"A facility used for the bulk storage of petrol, oil, petroleum or other inflammable liquid for wholesale distribution and at 	which no retail trade is conducted",Fuel Depot,74,Penrith,Operational,W & A Willmington Pty Ltd,Caltex,2195 Castlereagh Road,Penrith,New South Wales,5,20121004,"Station as well, Large Barn compound. Suspect in ground tanks. Used as fleet depot as well",-33.74272537,150.6928711
24,Fuel Depot,"A facility used for the bulk storage of petrol, oil, petroleum or other inflammable liquid for wholesale distribution and at 	which no retail trade is conducted",Fuel Depot,75,Oberon,Operational,Oilsplus Pty Ltd,Caltex,63 Lowes Mt Road,Oberon,New South Wales,5,20121004,,-33.69506836,149.8568878
25,Fuel Depot,"A facility used for the bulk storage of petrol, oil, petroleum or other inflammable liquid for wholesale distribution and at 	which no retail trade is conducted",Fuel Depot,76,Orange,Operational,Oilsplus Pty Ltd,Caltex,34-38 Peisley Street,Orange,New South Wales,5,20121004,Rail delivery large and small colour bond sheds in compound. separate office for station,-33.29530335,149.1018524
26,Fuel Depot,"A facility used for the bulk storage of petrol, oil, petroleum or other inflammable liquid for wholesale distribution and at 	which no retail trade is conducted",Fuel Depot,77,Dubbo,Operational,,Caltex,178 Fitzroy Street,Dubbo,New South Wales,5,20121004,"colour bond sheds, 1 brick pump house, 1 fibro weatherboard, Rail delivery",-32.24538422,148.6150818
27,Fuel Depot,"A facility used for the bulk storage of petrol, oil, petroleum or other inflammable liquid for wholesale distribution and at 	which no retail trade is conducted",Fuel Depot,78,Broken Hill,Operational,Tasco Inland Australia Pty Ltd,Caltex,5 Kanandah Road,Broken Hill,New South Wales,5,20121004,Mostly Depot 1 Diesel pump outside of Compound,-31.98440552,141.4329376
28,Fuel Depot,"A facility used for the bulk storage of petrol, oil, petroleum or other inflammable liquid for wholesale distribution and at 	which no retail trade is conducted",Fuel Depot,79,Broken Hill,Operational,Bromson Energy,Independent,22 Kanandah Road,Broken Hill,New South Wales,5,20121004,Mostly gas supplier and associated gas appliances next to ElGAS Depot with internal UniGAS tank. Plus petrol station,-31.9865284,141.430954
29,Fuel Depot,"A facility used for the bulk storage of petrol, oil, petroleum or other inflammable liquid for wholesale distribution and at 	which no retail trade is conducted",Fuel Depot,80,Tamworth (Nemingha),Operational,,Caltex,428 Armidale Road,Nemingha,New South Wales,5,20121004,"Station as well, open aired barrel storage shed, not using rail delivery",-31.12270069,150.9755554
30,Fuel Depot,"A facility used for the bulk storage of petrol, oil, petroleum or other inflammable liquid for wholesale distribution and at 	which no retail trade is conducted",Fuel Depot,81,Coonamble,Operational,,Caltex,Quambone Road,Coonamble,New South Wales,4,20121004,,-30.95410252,148.3792877
31,Fuel Depot,"A facility used for the bulk storage of petrol, oil, petroleum or other inflammable liquid for wholesale distribution and at 	which no retail trade is conducted",Fuel Depot,82,D G & R J Boland,Operational,,Caltex,Lot 4 James Street,Narrabri,New South Wales,5,20121004,,-30.33014679,149.7939911
32,Fuel Depot,"A facility used for the bulk storage of petrol, oil, petroleum or other inflammable liquid for wholesale distribution and at 	which no retail trade is conducted",Fuel Depot,83,Woolgoolga,Operational,,Caltex,16 Bosworth Road,Woolgoolga,New South Wales,5,20121004,,-30.1257515,153.1942825
33,Fuel Depot,"A facility used for the bulk storage of petrol, oil, petroleum or other inflammable liquid for wholesale distribution and at 	which no retail trade is conducted",Fuel Depot,84,Bourke,Operational,,Caltex,85 Anson Street,Bourke,New South Wales,5,20121004,,-30.09507179,145.9414291
34,Fuel Depot,"A facility used for the bulk storage of petrol, oil, petroleum or other inflammable liquid for wholesale distribution and at 	which no retail trade is conducted",Fuel Depot,85,Inverell,Operational,,Caltex,73 Ring Street,Inverell,New South Wales,5,20121004,,-29.76201248,151.1142044
35,Fuel Depot,"A facility used for the bulk storage of petrol, oil, petroleum or other inflammable liquid for wholesale distribution and at 	which no retail trade is conducted",Fuel Depot,86,Inverell,Operational,,Caltex,4 Edward Street,Inverell,New South Wales,5,20121004,station bowser overgrown with grass,-29.76122284,151.1147308
36,Fuel Depot,"A facility used for the bulk storage of petrol, oil, petroleum or other inflammable liquid for wholesale distribution and at 	which no retail trade is conducted",Fuel Depot,87,D G & R J Boland,Operational,,Caltex,Lot 1 Gosport Street,Moree,New South Wales,5,20121004,,-29.47606945,149.8477173
37,Fuel Depot,"A facility used for the bulk storage of petrol, oil, petroleum or other inflammable liquid for wholesale distribution and at 	which no retail trade is conducted",Fuel Depot,88,Murwillumbah,Operational,Caltex Petroleum Services Pty Ltd,Caltex,39 Lundberg Drive,Murwillumbah,New South Wales,5,20121004,,-28.33256626,153.4213104
38,Fuel Depot,"A facility used for the bulk storage of petrol, oil, petroleum or other inflammable liquid for wholesale distribution and at 	which no retail trade is conducted",Fuel Depot,89,Wagga,Operational,,Mobil,24 Lake Albert Road,Kooringal,New South Wales,5,20121004,,-35.12234116,147.3768616
39,Fuel Depot,"A facility used for the bulk storage of petrol, oil, petroleum or other inflammable liquid for wholesale distribution and at 	which no retail trade is conducted",Fuel Depot,90,Goulburn,Operational,,Mobil,23 Braidwood Road,Goulburn,New South Wales,5,20121004,Large Depot with one bowser probably for delivery trucks,-34.76213074,149.7171173
40,Fuel Depot,"A facility used for the bulk storage of petrol, oil, petroleum or other inflammable liquid for wholesale distribution and at 	which no retail trade is conducted",Fuel Depot,91,Griffith,Operational,Mobil,Mobil,30-34 Banna Avenue,Griffith,New South Wales,5,20121004,,-34.29053307,146.0595245
41,Fuel Depot,"A facility used for the bulk storage of petrol, oil, petroleum or other inflammable liquid for wholesale distribution and at 	which no retail trade is conducted",Fuel Depot,92,West Wyalong,Operational,,BP,Railway Road,West Wyalong,New South Wales,5,20121004,,-33.93438721,147.2154541
42,Fuel Depot,"A facility used for the bulk storage of petrol, oil, petroleum or other inflammable liquid for wholesale distribution and at 	which no retail trade is conducted",Fuel Depot,93,Ballina,Operational,Reliance Petroleum,BP,3 Southern Cross Drive,Ballina,New South Wales,5,20121004,,-28.85240173,153.5565643
43,Fuel Depot,"A facility used for the bulk storage of petrol, oil, petroleum or other inflammable liquid for wholesale distribution and at 	which no retail trade is conducted",Fuel Depot,94,Forbes,Operational,,BP,13-15 Union Street,Forbes,New South Wales,5,20121004,,-33.37757492,148.0102081
44,Fuel Depot,"A facility used for the bulk storage of petrol, oil, petroleum or other inflammable liquid for wholesale distribution and at 	which no retail trade is conducted",Fuel Depot,95,Orange,Operational,,BP,197-199 Margaret Street,Orange,New South Wales,5,20121004,,-33.27183533,149.1078796
45,Fuel Depot,"A facility used for the bulk storage of petrol, oil, petroleum or other inflammable liquid for wholesale distribution and at 	which no retail trade is conducted",Fuel Depot,96,Cowra,Operational,WestOils Petroleum Pty Ltd,BP,12 Campbell Street,Cowra,New South Wales,5,20121004,,-33.83802414,148.6977844
46,Fuel Depot,"A facility used for the bulk storage of petrol, oil, petroleum or other inflammable liquid for wholesale distribution and at 	which no retail trade is conducted",Fuel Depot,97,Grafton,Operational,,BP,13 Orara Street,Grafton,New South Wales,5,20121004,Might have Station as well i.e. has tanker bowser plus shelter,-29.67012215,152.9181671
47,Fuel Depot,"A facility used for the bulk storage of petrol, oil, petroleum or other inflammable liquid for wholesale distribution and at 	which no retail trade is conducted",Fuel Depot,98,Bathurst,Operational,,BP,33 Vale Road,Bathurst,New South Wales,5,20121004,,-33.43804932,149.5779724
48,Fuel Depot,"A facility used for the bulk storage of petrol, oil, petroleum or other inflammable liquid for wholesale distribution and at 	which no retail trade is conducted",Fuel Depot,99,Eden,Operational,Caltex Energy Eden,Caltex,86 Imlay Street,Eden,New South Wales,5,20121004,,-37.05709839,149.9038544
49,Fuel Depot,"A facility used for the bulk storage of petrol, oil, petroleum or other inflammable liquid for wholesale distribution and at 	which no retail trade is conducted",Fuel Depot,100,Armidale,Operational,Caltex Energy NSW,Caltex,146 Miller Street,Armidale,New South Wales,5,20121004,,-30.51361275,151.647995
50,Fuel Depot,"A facility used for the bulk storage of petrol, oil, petroleum or other inflammable liquid for wholesale distribution and at 	which no retail trade is conducted",Fuel Depot,101,Armidale,Operational,Lowes Fuels/Lubes Group,Lowes Fuels/Lubes Group,1 McLennan Street,Armidale,New South Wales,5,20121004,Lowes Web site not listing as service station but bowsers and price advertising displayed,-30.5110302,151.6481705
51,Fuel Depot,"A facility used for the bulk storage of petrol, oil, petroleum or other inflammable liquid for wholesale distribution and at 	which no retail trade is conducted",Fuel Depot,102,Bulahdelah,Operational,Caltex,Caltex,Lot 5 Mahogany Street,Bulahdelah,New South Wales,5,20121004,Isolated depot only one bowser,-32.39845467,152.2105865
52,Fuel Depot,"A facility used for the bulk storage of petrol, oil, petroleum or other inflammable liquid for wholesale distribution and at 	which no retail trade is conducted",Fuel Depot,103,Snowstop,Operational,,BP,4 Sharp Street,Cooma,New South Wales,5,20121004,,-36.22816658,149.1358032
53,Fuel Depot,"A facility used for the bulk storage of petrol, oil, petroleum or other inflammable liquid for wholesale distribution and at 	which no retail trade is conducted",Fuel Depot,104,Deniliquin,Operational,,BP,157 Hardinge Street,Deniliquin,New South Wales,5,20121004,Unsure of mix of business. Street view poor quality,-35.53210259,144.9516296
54,Fuel Depot,"A facility used for the bulk storage of petrol, oil, petroleum or other inflammable liquid for wholesale distribution and at 	which no retail trade is conducted",Fuel Depot,105,Coleambally,Operational,,BP,2 Calrose Avenue,Coleambally,New South Wales,4,20121004,Unsure if Above ground tanks installed not in aerials 2009 but in street view 2008,-34.80251312,145.8917236
55,Fuel Depot,"A facility used for the bulk storage of petrol, oil, petroleum or other inflammable liquid for wholesale distribution and at 	which no retail trade is conducted",Fuel Depot,106,Gulgong,Operational,BP,BP,13 Railway Avenue,Gulgong,New South Wales,5,20121004,Depot with single bowser and 24 hr system,-32.35945511,149.5461807
56,Fuel Depot,"A facility used for the bulk storage of petrol, oil, petroleum or other inflammable liquid for wholesale distribution and at 	which no retail trade is conducted",Fuel Depot,107,Darling River Fuels,Operational,,BP,2-8 Martin Street,Wilcannia,New South Wales,5,20121004,"Home, Small Depot with station. go fishing in Darling River at morning tea. adjacent to river",-31.56228638,143.3758392
57,Fuel Depot,"A facility used for the bulk storage of petrol, oil, petroleum or other inflammable liquid for wholesale distribution and at 	which no retail trade is conducted",Fuel Depot,108,Macksville,Operational,M & R J Webb  Pty Ltd,BP,4 Partridge Street,Macksville,New South Wales,5,20121004,Depot adjacent to tourist shopping centre car park and amidst commercial centre,-30.70843315,152.9213028
58,Fuel Depot,"A facility used for the bulk storage of petrol, oil, petroleum or other inflammable liquid for wholesale distribution and at 	which no retail trade is conducted",Fuel Depot,158,Broken Hill,Operational,Bromson Energy,ELGAS,24 Kanandah Road,Broken Hill,New South Wales,5,20121004,Depot separated from Bromson Energy Depot which specialises in GAS white good plus fuel,-31.98711586,141.4308319
59,Fuel Depot,"A facility used for the bulk storage of petrol, oil, petroleum or other inflammable liquid for wholesale distribution and at 	which no retail trade is conducted",Fuel Depot,239,Tunbridge Petroleum Pty Ltd,Operational,Tunbridge Petroleum Pty Ltd,Tunbridge Petroleum Pty Ltd,52 Grono Farm Road,Wilberforce,New South Wales,5,20121004,Insufficient clarity to digitise but tanks can be seen,-33.55300522,150.8655243
60,Fuel Depot,"A facility used for the bulk storage of petrol, oil, petroleum or other inflammable liquid for wholesale distribution and at 	which no retail trade is conducted",Fuel Depot,240,Dungog,Operational,Collison and Everett Pty Ltd,Collison and Everett Pty Ltd,Dunham Road,Dungog,New South Wales,4,20121004,Insufficient clarity in Street view due to battleaxe block. Aerial shows tanks and buildings,-32.42761993,151.5505829
61,Fuel Depot,"A facility used for the bulk storage of petrol, oil, petroleum or other inflammable liquid for wholesale distribution and at 	which no retail trade is conducted",Fuel Depot,241,Bombala,Operational,,Mobil,2 High Street,Bombala,New South Wales,3,20121004,"single pump station as well, 1 large + 2 small lay down tanks, single pump station as well, Steel shed, wooden building, next to low drainage ground, 200m to river",-36.9044838,149.2413406
62,Fuel Depot,"A facility used for the bulk storage of petrol, oil, petroleum or other inflammable liquid for wholesale distribution and at 	which no retail trade is conducted",Fuel Depot,242,Bunnaloo,Operational,Caltex Petroleum Services Pty Ltd,Caltex,Lot 3 Bunnaloo Road,Bunnaloo,New South Wales,1,20121004,,-35.7882309,144.5985336
63,Fuel Depot,"A facility used for the bulk storage of petrol, oil, petroleum or other inflammable liquid for wholesale distribution and at 	which no retail trade is conducted",Fuel Depot,243,Berrigan,Operational,Caltex Petroleum Services Pty Ltd,Caltex,155-165 Chanter Street,Berrigan,New South Wales,1,20121004,"1Large lay down tank, + 1 small VitalGAS tank, Brick office /station + workshop",-35.65559006,145.8013153
64,Fuel Depot,"A facility used for the bulk storage of petrol, oil, petroleum or other inflammable liquid for wholesale distribution and at 	which no retail trade is conducted",Fuel Depot,244,Oudenryn,Operational,,BP,45 Boolcarrol Street,Wee Waa,New South Wales,5,20121004,"Insufficient info in street view, Google or aerial",-30.22401905,149.4325104
65,Fuel Depot,"A facility used for the bulk storage of petrol, oil, petroleum or other inflammable liquid for wholesale distribution and at 	which no retail trade is conducted",Fuel Depot,245,Smithfield,Operational,Caltex,Caltex,16-18 Tait Street,Smithfield,New South Wales,5,20121004, High tension power lines,-33.84617996,150.9434586
66,Fuel Depot,"A facility used for the bulk storage of petrol, oil, petroleum or other inflammable liquid for wholesale distribution and at 	which no retail trade is conducted",Fuel Depot,246,Muswellbrook,Operational,Buchannan's Bulk Fuel Supplies Pty Ltd,Caltex,1 Lower William Street,Muswellbrook,New South Wales,5,20121004,,-32.26560593,150.8867264
